ISS  TRAJECTORY DATA
 
   Lift off time (UTC)  :  N/A
   Area (sq ft)  :  14929.5437
   Drag Coefficient (Cd)  :   2.00
   Monthly MSFC 50% solar flux (F10.7-jansky)  :   75.3
   Monthly MSFC 50% earth geomagnetic index (Kp)  :   2.582
   ET - UTC  (sec) :   68.18
   UT1 - UTC (sec) :    0.00
 
 
   Maneuvers contained within the current ephemeris are as follows:
 
 
   IMPULSIVE TIG (GMT)   M50 DVx(FPS)      LVLH DVx(FPS)      DVmag(FPS) 
   IMPULSIVE TIG (MET)   M50 DVy(FPS)      LVLH DVy(FPS)      Invar Sph HA
   DT                    M50 DVz(FPS)      LVLH DVz(FPS)      Invar Sph HP 
   ------------------------------------------------------------------------
   333/15:51:36.572           0.5               1.2              1.2    
   N/A                       -1.1              -0.1              221.5  
   000/00:03:13.144           0.3              -0.0              214.6  
   
   334/13:25:00.000           0.0               0.0              0.0    
   N/A                        0.0               0.0              221.4  
   000/00:00:00.000           0.0               0.0              214.6  
   
   338/13:10:00.000           0.0               0.0              0.0    
   N/A                        0.0               0.0              221.0  
   000/00:00:00.000           0.0               0.0              214.9  
   
   338/19:53:38.000           0.0               0.0              0.0    
   N/A                        0.0               0.0              220.9  
   000/00:00:00.000           0.0               0.0              215.1  
   
   340/11:00:00.000           0.0               0.0              0.0    
   N/A                        0.0               0.0              220.8  
   000/00:00:00.000           0.0               0.0              215.2  
   
 
 
    Coasting Arc #1 (Orbit 636)
    ---------------------------------------
 
    Vector Time (GMT): 2017/326/12:00:00.000
    Vector Time (MET): N/A
    Weight (LBS)     : 933812.0
 
              M50 Cartesian                         M50 Keplerian  
    -----------------------------------       --------------------------------
     X    =       -3733843.58                 A    =         6785764.08  meter
     Y    =        4911372.07  meter          E    =           .0016694
     Z    =        2804522.85                 I    =           51.45541
     XDOT =      -5587.266051                 Wp   =          108.21937
     YDOT =      -1330.020529  meter/sec      RA   =          328.47687  deg
     ZDOT =      -5089.709712                 TA   =           39.83558
                                              MA   =           39.71315
                                              Ha   =            222.032  n.mi
                                              Hp   =            213.499
 
              M50 Cartesian                         J2K Cartesian  
    -----------------------------------       --------------------------------
     X    =      -12250142.97                 X    =        -3802109.57
     Y    =       16113425.42  feet           Y    =         4869235.79  meter
     Z    =        9201190.44                 Z    =         2786219.22
     XDOT =     -18330.925363                 XDOT =       -5547.254425
     YDOT =      -4363.584412  feet/sec       YDOT =       -1392.277084  meter/sec
     ZDOT =     -16698.522678                 ZDOT =       -5116.754279
 
              TDR Cartesian                         TDR Cartesian  
    -----------------------------------       --------------------------------
     X    =       -8059496.16                 X    =        -2456534.43
     Y    =      -18607968.29  feet           Y    =        -5671708.74  meter
     Z    =        9119124.12                 Z    =         2779509.03
     XDOT =      11343.511824                 XDOT =        3457.502404
     YDOT =     -13187.280325  feet/sec       YDOT =       -4019.483043  meter/sec
     ZDOT =     -16818.240956                 ZDOT =       -5126.199844
  
  
    The mean element set is posted at the UTC for which position is
    just north of the next ascending node relative to the above
    vector time
 
 
    TWO LINE MEAN ELEMENT SET
  
    ISS
    1 25544U 98067A   17326.53782513  .00016717  00000-0  10270-3 0  9000
    2 25544  51.6398 328.9242 0003909 138.2726 221.8725 15.54228034  6371
  
  
    Satellite: ISS
    Catalog Number: 25544
    Epoch time:      17326.53782513   =   yrday.fracday
    Element set:     900
    Inclination:       51.6398  deg
    RA of node:       328.9242  deg
    Eccentricity:     .0003909     
    Arg of perigee:   138.2726  deg
    Mean anomaly:     221.8725  deg
    Mean motion:   15.54228034  rev/day
    Decay rate:    1.67170E-04  rev/day^2
    Epoch rev:             637
    Checksum:              315
 
 
    Coasting Arc #2 (Orbit 651)
    ---------------------------------------
 
    Vector Time (GMT): 2017/327/12:00:00.000
    Vector Time (MET): N/A
    Weight (LBS)     : 933812.0
 
              M50 Cartesian                         M50 Keplerian  
    -----------------------------------       --------------------------------
     X    =        4731204.05                 A    =         6788372.21  meter
     Y    =       -4711012.24  meter          E    =           .0009121
     Z    =       -1218641.78                 I    =           51.43649
     XDOT =       4176.539975                 Wp   =           63.72377
     YDOT =       2695.125116  meter/sec      RA   =          323.48965  deg
     ZDOT =       5833.965678                 TA   =          283.00063
                                              MA   =          283.10245
                                              Ha   =            222.006  n.mi
                                              Hp   =            213.460
 
              M50 Cartesian                         J2K Cartesian  
    -----------------------------------       --------------------------------
     X    =       15522323.01                 X    =         4789451.86
     Y    =      -15456076.91  feet           Y    =        -4657778.92  meter
     Z    =       -3998168.57                 Z    =        -1195517.57
     XDOT =      13702.558973                 XDOT =        4117.753022
     YDOT =       8842.274001  feet/sec       YDOT =        2741.500954  meter/sec
     ZDOT =      19140.307344                 ZDOT =        5854.111688
 
              TDR Cartesian                         TDR Cartesian  
    -----------------------------------       --------------------------------
     X    =        6267780.53                 X    =         1910419.51
     Y    =       21008662.98  feet           Y    =         6403440.48  meter
     Z    =       -3894763.64                 Z    =        -1187123.96
     XDOT =     -12680.242704                 XDOT =       -3864.937976
     YDOT =       7324.245694  feet/sec       YDOT =        2232.430088  meter/sec
     ZDOT =      19229.184024                 ZDOT =        5861.055290
  
  
    The mean element set is posted at the UTC for which position is
    just north of the next ascending node relative to the above
    vector time
 
 
    TWO LINE MEAN ELEMENT SET
  
    ISS
    1 25544U 98067A   17327.50230734  .00016717  00000-0  10270-3 0  9012
    2 25544  51.6393 324.1168 0004146 142.3636 217.7808 15.54249930  6522
  
  
    Satellite: ISS
    Catalog Number: 25544
    Epoch time:      17327.50230734   =   yrday.fracday
    Element set:     901
    Inclination:       51.6393  deg
    RA of node:       324.1168  deg
    Eccentricity:     .0004146     
    Arg of perigee:   142.3636  deg
    Mean anomaly:     217.7808  deg
    Mean motion:   15.54249930  rev/day
    Decay rate:    1.67170E-04  rev/day^2
    Epoch rev:             652
    Checksum:              298
 
 
    Coasting Arc #3 (Orbit 667)
    ---------------------------------------
 
    Vector Time (GMT): 2017/328/12:00:00.000
    Vector Time (MET): N/A
    Weight (LBS)     : 933812.0
 
              M50 Cartesian                         M50 Keplerian  
    -----------------------------------       --------------------------------
     X    =       -5339464.29                 A    =         6788932.73  meter
     Y    =        4146242.38  meter          E    =           .0014706
     Z    =        -541661.34                 I    =           51.41150
     XDOT =      -2572.556284                 Wp   =          140.32713
     YDOT =      -4078.973275  meter/sec      RA   =          318.50390  deg
     ZDOT =      -5964.767002                 TA   =           45.53756
                                              MA   =           45.41738
                                              Ha   =            221.874  n.mi
                                              Hp   =            213.633
 
              M50 Cartesian                         J2K Cartesian  
    -----------------------------------       --------------------------------
     X    =      -17517927.46                 X    =        -5382800.69
     Y    =       13603157.41  feet           Y    =         4086290.56  meter
     Z    =       -1777104.15                 Z    =         -567704.12
     XDOT =      -8440.145288                 XDOT =       -2497.778669
     YDOT =     -13382.458252  feet/sec       YDOT =       -4107.322901  meter/sec
     ZDOT =     -19569.445546                 ZDOT =       -5977.082442
 
              TDR Cartesian                         TDR Cartesian  
    -----------------------------------       --------------------------------
     X    =       -4084447.69                 X    =        -1244939.66
     Y    =      -21790234.12  feet           Y    =        -6641663.36  meter
     Z    =       -1893345.51                 Z    =         -577091.71
     XDOT =      14114.921681                 XDOT =        4302.228128
     YDOT =       -967.634818  feet/sec       YDOT =        -294.935092  meter/sec
     ZDOT =     -19623.348996                 ZDOT =       -5981.196774
  
